[{"OBJECT_NAME":"STARLINK-2516","OBJECT_ID":"2021-036H","EPOCH":"2026-03-09T22:55:20.656416","MEAN_MOTION":15.30221874,"ECCENTRICITY":0.00018919,"INCLINATION":53.1591,"RA_OF_ASC_NODE":74.1373,"ARG_OF_PERICENTER":109.1584,"MEAN_ANOMALY":250.9622,"EPHEMERIS_TYPE":0,"CLASSIFICATION_TYPE":"U","NORAD_CAT_ID":48283,"ELEMENT_SET_NO":999,"REV_AT_EPOCH":26845,"BSTAR":0.001005498,"MEAN_MOTION_DOT":0.0002956,"MEAN_MOTION_DDOT":0},{"OBJECT_NAME":"OBJECT A","OBJECT_ID":"2023-189A","EPOCH":"2026-03-09T22:59:06.381600","MEAN_MOTION":15.32403275,"ECCENTRICITY":0.00094831,"INCLINATION":97.4458,"RA_OF_ASC_NODE":86.5997,"ARG_OF_PERICENTER":249.5377,"MEAN_ANOMALY":110.4847,"EPHEMERIS_TYPE":0,"CLASSIFICATION_TYPE":"U","NORAD_CAT_ID":58502,"ELEMENT_SET_NO":999,"REV_AT_EPOCH":12601,"BSTAR":0.00019874471,"MEAN_MOTION_DOT":6.146e-5,"MEAN_MOTION_DDOT":0}]
